[
    {
        "Altitude(m)": 554398.9731850226,
        "Argument of Periapsis(deg)": 0.026491964442854003,
        "Eccentricity": 0.0,
        "Inclination(deg)": 53.0,
        "Latitude(deg)": -1.2244372363173595,
        "Longitude(deg)": 5.898155473331264,
        "Mean Anomaly(deg)": -1.4517285296896525,
        "RAAN(deg)": 109.96057347411207,
        "Satellite Name": "Starlink Shell 1 503",
        "Satellite Number": 503,
        "Semi-Major Axis(m)": 6931778.249405717,
        "Time(s)": 760
    },
    {
        "Altitude(m)": 554328.2153244872,
        "Argument of Periapsis(deg)": 0.02684054292236524,
        "Eccentricity": 0.0,
        "Inclination(deg)": 53.0,
        "Latitude(deg)": -0.7205567921546173,
        "Longitude(deg)": 6.233619274563007,
        "Mean Anomaly(deg)": -0.8248973261328806,
        "RAAN(deg)": 109.96005470403459,
        "Satellite Name": "Starlink Shell 1 503",
        "Satellite Number": 503,
        "Semi-Major Axis(m)": 6931778.249405717,
        "Time(s)": 770
    },
    {
        "Altitude(m)": 554260.2425109851,
        "Argument of Periapsis(deg)": 0.027189121401876473,
        "Eccentricity": 0.0,
        "Inclination(deg)": 53.0,
        "Latitude(deg)": -0.21663404813013928,
        "Longitude(deg)": 6.569007534786109,
        "Mean Anomaly(deg)": -0.19806612257612133,
        "RAAN(deg)": 109.95953593395711,
        "Satellite Name": "Starlink Shell 1 503",
        "Satellite Number": 503,
        "Semi-Major Axis(m)": 6931778.249405717,
        "Time(s)": 780
    },
    {
        "Altitude(m)": 554195.0639962817,
        "Argument of Periapsis(deg)": 0.02753769988138771,
        "Eccentricity": 0.0,
        "Inclination(deg)": 53.0,
        "Latitude(deg)": 0.28730810142045976,
        "Longitude(deg)": 6.904378287724535,
        "Mean Anomaly(deg)": 0.4287650809805234,
        "RAAN(deg)": 109.95901716387965,
        "Satellite Name": "Starlink Shell 1 503",
        "Satellite Number": 503,
        "Semi-Major Axis(m)": 6931778.249405717,
        "Time(s)": 790
    },
    {
        "Altitude(m)": 554132.6876775265,
        "Argument of Periapsis(deg)": 0.02788627836089895,
        "Eccentricity": 0.0,
        "Inclination(deg)": 53.0,
        "Latitude(deg)": 0.791246763393539,
        "Longitude(deg)": 7.239789057644867,
        "Mean Anomaly(deg)": 1.0555962845372953,
        "RAAN(deg)": 109.95849839380219,
        "Satellite Name": "Starlink Shell 1 503",
        "Satellite Number": 503,
        "Semi-Major Axis(m)": 6931778.249405717,
        "Time(s)": 800
    },
    {
        "Altitude(m)": 554073.1200961103,
        "Argument of Periapsis(deg)": 0.02823485684041019,
        "Eccentricity": 0.0,
        "Inclination(deg)": 53.0,
        "Latitude(deg)": 1.2951590342408057,
        "Longitude(deg)": 7.575297388871717,
        "Mean Anomaly(deg)": 1.682427488093953,
        "RAAN(deg)": 109.95797962372471,
        "Satellite Name": "Starlink Shell 1 503",
        "Satellite Number": 503,
        "Semi-Major Axis(m)": 6931778.249405717,
        "Time(s)": 810
    },
    {
        "Altitude(m)": 554016.3664371108,
        "Argument of Periapsis(deg)": 0.028583435319921423,
        "Eccentricity": 0.0,
        "Inclination(deg)": 53.0,
        "Latitude(deg)": 1.7990219882852725,
        "Longitude(deg)": 7.910961375313134,
        "Mean Anomaly(deg)": 2.309258691650712,
        "RAAN(deg)": 109.95746085364723,
        "Satellite Name": "Starlink Shell 1 503",
        "Satellite Number": 503,
        "Semi-Major Axis(m)": 6931778.249405717,
        "Time(s)": 820
    },
    {
        "Altitude(m)": 553962.430529524,
        "Argument of Periapsis(deg)": 0.028932013799432665,
        "Eccentricity": 0.0,
        "Inclination(deg)": 53.0,
        "Latitude(deg)": 2.3028126660131245,
        "Longitude(deg)": 8.246838677129166,
        "Mean Anomaly(deg)": 2.9360898952073695,
        "RAAN(deg)": 109.95694208356976,
        "Satellite Name": "Starlink Shell 1 503",
        "Satellite Number": 503,
        "Semi-Major Axis(m)": 6931778.249405717,
        "Time(s)": 830
    },
    {
        "Altitude(m)": 553911.3148470769,
        "Argument of Periapsis(deg)": 0.029280592278943897,
        "Eccentricity": 0.0,
        "Inclination(deg)": 53.0,
        "Latitude(deg)": 2.806508062338347,
        "Longitude(deg)": 8.582987050299957,
        "Mean Anomaly(deg)": 3.562921098764129,
        "RAAN(deg)": 109.95642331349228,
        "Satellite Name": "Starlink Shell 1 503",
        "Satellite Number": 503,
        "Semi-Major Axis(m)": 6931778.249405717,
        "Time(s)": 840
    },
    {
        "Altitude(m)": 553863.0205097917,
        "Argument of Periapsis(deg)": 0.029629170758455132,
        "Eccentricity": 0.0,
        "Inclination(deg)": 53.0,
        "Latitude(deg)": 3.3100851148237456,
        "Longitude(deg)": 8.919464876224712,
        "Mean Anomaly(deg)": 4.189752302320888,
        "RAAN(deg)": 109.95590454341482,
        "Satellite Name": "Starlink Shell 1 503",
        "Satellite Number": 503,
        "Semi-Major Axis(m)": 6931778.249405717,
        "Time(s)": 850
    },
    {
        "Altitude(m)": 553817.5472861683,
        "Argument of Periapsis(deg)": 0.02997774923796637,
        "Eccentricity": 0.0,
        "Inclination(deg)": 53.0,
        "Latitude(deg)": 3.8135206918457496,
        "Longitude(deg)": 9.256330010390926,
        "Mean Anomaly(deg)": 4.816583505877558,
        "RAAN(deg)": 109.95538577333735,
        "Satellite Name": "Starlink Shell 1 503",
        "Satellite Number": 503,
        "Semi-Major Axis(m)": 6931778.249405717,
        "Time(s)": 860
    },
    {
        "Altitude(m)": 553774.8935961032,
        "Argument of Periapsis(deg)": 0.030326327717477602,
        "Eccentricity": 0.0,
        "Inclination(deg)": 53.0,
        "Latitude(deg)": 4.316791580698653,
        "Longitude(deg)": 9.593641152545874,
        "Mean Anomaly(deg)": 5.443414709434317,
        "RAAN(deg)": 109.95486700325988,
        "Satellite Name": "Starlink Shell 1 503",
        "Satellite Number": 503,
        "Semi-Major Axis(m)": 6931778.249405717,
        "Time(s)": 870
    },
    {
        "Altitude(m)": 553735.05651442,
        "Argument of Periapsis(deg)": 0.030674906196988847,
        "Eccentricity": 0.0,
        "Inclination(deg)": 53.0,
        "Latitude(deg)": 4.819874475616956,
        "Longitude(deg)": 9.931456695465194,
        "Mean Anomaly(deg)": 6.070245912990962,
        "RAAN(deg)": 109.9543482331824,
        "Satellite Name": "Starlink Shell 1 503",
        "Satellite Number": 503,
        "Semi-Major Axis(m)": 6931778.249405717,
        "Time(s)": 880
    },
    {
        "Altitude(m)": 553698.0317751034,
        "Argument of Periapsis(deg)": 0.031023484676500086,
        "Eccentricity": 0.0,
        "Inclination(deg)": 53.0,
        "Latitude(deg)": 5.322745965713985,
        "Longitude(deg)": 10.26983525475309,
        "Mean Anomaly(deg)": 6.697077116547721,
        "RAAN(deg)": 109.95382946310492,
        "Satellite Name": "Starlink Shell 1 503",
        "Satellite Number": 503,
        "Semi-Major Axis(m)": 6931778.249405717,
        "Time(s)": 890
    },
    {
        "Altitude(m)": 553663.8137762271,
        "Argument of Periapsis(deg)": 0.03137206315601132,
        "Eccentricity": 0.0,
        "Inclination(deg)": 53.0,
        "Latitude(deg)": 5.825382522819669,
        "Longitude(deg)": 10.608836198707547,
        "Mean Anomaly(deg)": 7.323908320104379,
        "RAAN(deg)": 109.95331069302745,
        "Satellite Name": "Starlink Shell 1 503",
        "Satellite Number": 503,
        "Semi-Major Axis(m)": 6931778.249405717,
        "Time(s)": 900
    },
    {
        "Altitude(m)": 553632.3955854771,
        "Argument of Periapsis(deg)": 0.03172064163552255,
        "Eccentricity": 0.0,
        "Inclination(deg)": 53.0,
        "Latitude(deg)": 6.327760489205944,
        "Longitude(deg)": 10.948518665384865,
        "Mean Anomaly(deg)": 7.950739523661151,
        "RAAN(deg)": 109.95279192294998,
        "Satellite Name": "Starlink Shell 1 503",
        "Satellite Number": 503,
        "Semi-Major Axis(m)": 6931778.249405717,
        "Time(s)": 910
    },
    {
        "Altitude(m)": 553603.7689464072,
        "Argument of Periapsis(deg)": 0.0320692201150338,
        "Eccentricity": 0.0,
        "Inclination(deg)": 53.0,
        "Latitude(deg)": 6.82985606519117,
        "Longitude(deg)": 11.288942092614134,
        "Mean Anomaly(deg)": 8.57757072721791,
        "RAAN(deg)": 109.95227315287252,
        "Satellite Name": "Starlink Shell 1 503",
        "Satellite Number": 503,
        "Semi-Major Axis(m)": 6931778.249405717,
        "Time(s)": 920
    },
    {
        "Altitude(m)": 553577.9242853113,
        "Argument of Periapsis(deg)": 0.032417798594545036,
        "Eccentricity": 0.0,
        "Inclination(deg)": 53.0,
        "Latitude(deg)": 7.331645296610964,
        "Longitude(deg)": 11.630166748093501,
        "Mean Anomaly(deg)": 9.204401930774567,
        "RAAN(deg)": 109.95175438279504,
        "Satellite Name": "Starlink Shell 1 503",
        "Satellite Number": 503,
        "Semi-Major Axis(m)": 6931778.249405717,
        "Time(s)": 930
    },
    {
        "Altitude(m)": 553554.8507187756,
        "Argument of Periapsis(deg)": 0.03276637707405627,
        "Eccentricity": 0.0,
        "Inclination(deg)": 53.0,
        "Latitude(deg)": 7.833104062140387,
        "Longitude(deg)": 11.97225274669904,
        "Mean Anomaly(deg)": 9.831233134331212,
        "RAAN(deg)": 109.95123561271757,
        "Satellite Name": "Starlink Shell 1 503",
        "Satellite Number": 503,
        "Semi-Major Axis(m)": 6931778.249405717,
        "Time(s)": 940
    }
]